NORAD_CAT_ID,OBJECT_NAME,OBJECT_TYPE,EPOCH,MEAN_MOTION,ECCENTRICITY,INCLINATION,RA_OF_ASC_NODE,ARG_OF_PERICENTER,MEAN_ANOMALY,BSTAR,MEAN_MOTION_DOT,MEAN_MOTION_DDOT,TLE_LINE0,TLE_LINE1,TLE_LINE2,SEMIMAJOR_AXIS,PERIOD,APOGEE,PERIGEE,DECAYED
52463.0,STARLINK-3885,PAYLOAD,2022-06-13 22:00:00,15.73244807,0.000147,53.2175,75.7342,37.5631,58.2755,-0.00062565,-0.00087685,0.0,0 STARLINK-3885,1 52463U 22049N   22164.91667824 -.00087685  00000-0 -62565-3 0  9998,2 52463  53.2175  75.7342 0001470  37.5631  58.2755 15.73244807  1307,6727.767,91.531,350.621,348.64300000000014,0.0
52463.0,STARLINK-3885,PAYLOAD,2022-06-14 14:00:01,15.73147313,0.0001522,53.2175,72.4346,41.0338,232.681,0.00034912,0.0004855,0.0,0 STARLINK-3885,1 52463U 22049N   22165.58334491  .00048550  00000-0  34912-3 0  9994,2 52463  53.2175  72.4346 0001522  41.0338 232.6810 15.73147313  6339,6728.045,91.536,350.934,348.886,0.0
52463.0,STARLINK-3885,PAYLOAD,2022-06-14 22:00:00,15.73164427,0.0001729,53.2174,70.7864,46.1206,316.4858,-0.00020535,-0.00029297,0.0,0 STARLINK-3885,1 52463U 22049N   22165.91667824 -.00029297  00000-0 -20535-3 0  9995,2 52463  53.2174  70.7864 0001729  46.1206 316.4858 15.73164427  1314,6727.996999999999,91.535,351.025,348.6980000000001,0.0
52463.0,STARLINK-3885,PAYLOAD,2022-06-15 06:00:00,15.73152728,0.0001845,53.2167,69.1379,43.2271,48.2595,0.00047268,0.00066108,0.0,0 STARLINK-3885,1 52463U 22049N   22166.25001157  .00066108  00000-0  47268-3 0  9996,2 52463  53.2167  69.1379 0001845  43.2271  48.2595 15.73152728  6446,6728.03,91.536,351.136,348.654,0.0
52463.0,STARLINK-3885,PAYLOAD,2022-06-15 14:00:01,15.73177928,0.0001524,53.2168,67.4865,49.1388,131.2539,0.00053332,0.00074827,0.0,0 STARLINK-3885,1 52463U 22049N   22166.58334491  .00074827  00000-0  53332-3 0  9998,2 52463  53.2168  67.4865 0001524  49.1388 131.2539 15.73177928  1306,6727.958000000001,91.534,350.848,348.798,0.0
52463.0,STARLINK-3885,PAYLOAD,2022-06-15 22:00:00,15.73227175,0.0001579,53.2171,65.8384,45.0455,224.2847,-0.00031286,-0.00044349,0.0,0 STARLINK-3885,1 52463U 22049N   22166.91667824 -.00044349  00000-0 -31286-3 0  9996,2 52463  53.2171  65.8384 0001579  45.0455 224.2847 15.73227175  6544,6727.818,91.532,350.745,348.62,0.0
52463.0,STARLINK-3885,PAYLOAD,2022-06-16 02:00:01,15.73188283,0.0001616,53.2172,65.0144,39.8248,94.0062,0.00062718,0.00088287,0.0,0 STARLINK-3885,1 52463U 22049N   22167.08334491  .00088287  00000-0  62718-3 0  9997,2 52463  53.2172  65.0144 0001616  39.8248  94.0062 15.73188283  1301,6727.929,91.534,350.881,348.706,0.0
52463.0,STARLINK-3885,PAYLOAD,2022-06-19 14:00:01,15.73213112,0.0001333,53.2158,47.6918,49.0579,118.5692,-6.4331e-05,-9.643e-05,0.0,0 STARLINK-3885,1 52463U 22049N   22170.58334491 -.00009643  00000-0 -64331-4 0  9991,2 52463  53.2158  47.6918 0001333  49.0579 118.5692 15.73213112  1307,6727.858,91.532,350.62,348.826,0.0
52463.0,STARLINK-3885,PAYLOAD,2022-06-19 20:00:01,15.73188267,0.0001505,53.2162,46.456,47.9401,96.3888,0.00017254,0.00023651,0.0,0 STARLINK-3885,1 52463U 22049N   22170.83334491  .00023651  00000-0  17254-3 0  9993,2 52463  53.2162  46.4560 0001505  47.9401  96.3888 15.73188267  7166,6727.929,91.534,350.806,348.781,0.0
52463.0,STARLINK-3885,PAYLOAD,2022-06-19 22:00:00,15.73187196,0.0001606,53.2161,46.0442,46.9736,209.5854,0.00027001,0.00037422,0.0,0 STARLINK-3885,1 52463U 22049N   22170.91667824  .00037422  00000-0  27001-3 0  9993,2 52463  53.2161  46.0442 0001606  46.9736 209.5854 15.73187196  1303,6727.932,91.534,350.87699999999984,348.716,0.0
52463.0,STARLINK-3885,PAYLOAD,2022-06-20 12:00:00,15.73196897,0.0001520999999999,53.2164,43.1557,51.2298,270.9771,-0.00014843,-0.00021396,0.0,0 STARLINK-3885,1 52463U 22049N   22171.50001157 -.00021396  00000-0 -14843-3 0  9995,2 52463  53.2164  43.1557 0001521  51.2298 270.9771 15.73196897  7268,6727.904,91.533,350.792,348.746,0.0
52463.0,STARLINK-3885,PAYLOAD,2022-06-20 14:00:01,15.73198628,0.0001543,53.2164,42.7431,53.1593,21.2779,-0.00027648,-0.0003924,0.0,0 STARLINK-3885,1 52463U 22049N   22171.58334491 -.00039240  00000-0 -27648-3 0  9997,2 52463  53.2164  42.7431 0001543  53.1593  21.2779 15.73198628  1305,6727.899,91.533,350.802,348.726,0.0
52463.0,STARLINK-3885,PAYLOAD,2022-06-20 22:00:00,15.73165856,0.0001591,53.2162,41.0956,44.1465,119.2298,0.00025838,0.00035744,0.0,0 STARLINK-3885,1 52463U 22049N   22171.91667824  .00035744  00000-0  25838-3 0  9995,2 52463  53.2162  41.0956 0001591  44.1465 119.2298 15.73165856  1309,6727.993,91.535,350.92800000000005,348.787,0.0
52463.0,STARLINK-3885,PAYLOAD,2022-06-21 06:00:00,15.73221794,0.0001522,53.2156,39.4456,43.8657,208.4103,0.00012432,0.00016878,0.0,0 STARLINK-3885,1 52463U 22049N   22172.25001157  .00016878  00000-0  12432-3 0  9997,2 52463  53.2156  39.4456 0001522  43.8657 208.4103 15.73221794  7385,6727.833000000001,91.532,350.722,348.6740000000001,0.0
52463.0,STARLINK-3885,PAYLOAD,2022-06-21 14:00:01,15.73233525,0.0001440999999999,53.2161,37.7946,54.6766,286.5479,-0.00016934,-0.00024352,0.0,0 STARLINK-3885,1 52463U 22049N   22172.58334491 -.00024352  00000-0 -16934-3 0  9992,2 52463  53.2161  37.7946 0001441  54.6766 286.5479 15.73233525  1301,6727.8,91.531,350.634,348.695,0.0
52463.0,STARLINK-3885,PAYLOAD,2022-06-21 22:00:00,15.73230898,0.0001611,53.2162,36.1473,47.9007,22.2739,-0.00030786,-0.00043661,0.0,0 STARLINK-3885,1 52463U 22049N   22172.91667824 -.00043661  00000-0 -30786-3 0  9993,2 52463  53.2162  36.1473 0001611  47.9007  22.2739 15.73230898  1306,6727.807,91.531,350.756,348.588,0.0
52463.0,STARLINK-3885,PAYLOAD,2022-06-22 00:00:02,15.73224873,0.0001612,53.2165,35.7352,45.8254,136.6544,-0.00028296,-0.00040186,0.0,0 STARLINK-3885,1 52463U 22049N   22173.00002315 -.00040186  00000-0 -28296-3 0  9994,2 52463  53.2165  35.7352 0001612  45.8254 136.6544 15.73224873  7500,6727.824000000001,91.532,350.774,348.605,0.0
52463.0,STARLINK-3885,PAYLOAD,2022-06-22 14:00:01,15.73201192,0.0001268,53.2167,32.8462,46.746,201.3007,0.0003271,0.00045538,0.0,0 STARLINK-3885,1 52463U 22049N   22173.58334491  .00045538  00000-0  32710-3 0  9990,2 52463  53.2167  32.8462 0001268  46.7460 201.3007 15.73201192  1303,6727.892,91.533,350.61,348.904,0.0
52463.0,STARLINK-3885,PAYLOAD,2022-06-22 16:00:00,15.73247998,0.0001311,53.2167,32.4343,44.5478,315.722,-0.00035246,-0.00049894,0.0,0 STARLINK-3885,1 52463U 22049N   22173.66667824 -.00049894  00000-0 -35246-3 0  9996,2 52463  53.2167  32.4343 0001311  44.5478 315.7220 15.73247998  7612,6727.7580000000025,91.53,350.505,348.741,0.0
52463.0,STARLINK-3885,PAYLOAD,2022-06-22 22:00:00,15.73229689,0.0001436,53.2163,31.1988,37.4029,299.6256,-0.00018562,-0.00026622,0.0,0 STARLINK-3885,1 52463U 22049N   22173.91667824 -.00026622  00000-0 -18562-3 0  9990,2 52463  53.2163  31.1988 0001436  37.4029 299.6256 15.73229689  7650,6727.811,91.531,350.642,348.709,0.0
52463.0,STARLINK-3885,PAYLOAD,2022-06-23 14:00:01,15.73206939,0.0001338,53.2161,27.8978,51.2066,103.6742,-0.00014848,-0.00021411,0.0,0 STARLINK-3885,1 52463U 22049N   22174.58334491 -.00021411  00000-0 -14848-3 0  9999,2 52463  53.2161  27.8978 0001338  51.2066 103.6742 15.73206939  1308,6727.875,91.533,350.641,348.84,0.0
52463.0,STARLINK-3885,PAYLOAD,2022-06-23 22:00:00,15.73149949,0.0001639,53.2163,26.2507,45.932,197.8748,0.00036813,0.0005125,0.0,0 STARLINK-3885,1 52463U 22049N   22174.91667824  .00051250  00000-0  36813-3 0  9993,2 52463  53.2163  26.2507 0001639  45.9320 197.8748 15.73149949  1306,6728.038000000001,91.536,351.006,348.8,0.0
52463.0,STARLINK-3885,PAYLOAD,2022-06-24 06:00:02,15.73230044,0.0001412,53.2167,24.5968,43.3936,289.3345,-0.00071772,-0.00100285,0.0,0 STARLINK-3885,1 52463U 22049N   22175.25002315 -.00100285  00000-0 -71772-3 0  9997,2 52463  53.2167  24.5968 0001412  43.3936 289.3345 15.73230044  7860,6727.81,91.531,350.624,348.725,0.0
52463.0,STARLINK-3885,PAYLOAD,2022-06-24 14:00:01,15.73209717,0.0001504,53.2165,22.9497,51.3242,10.2637,0.00041617,0.00058217,0.0,0 STARLINK-3885,1 52463U 22049N   22175.58334491  .00058217  00000-0  41617-3 0  9996,2 52463  53.2165  22.9497 0001504  51.3242  10.2637 15.73209717  7912,6727.8669999999975,91.533,350.744,348.721,0.0
52463.0,STARLINK-3885,PAYLOAD,2022-06-24 22:00:01,15.73260865,0.0001691,53.2164,21.3016,42.1704,108.4461,-0.00038391,-0.00054296,0.0,0 STARLINK-3885,1 52463U 22049N   22175.91668981 -.00054296  00000-0 -38391-3 0  9997,2 52463  53.2164  21.3016 0001691  42.1704 108.4461 15.73260865  1302,6727.722,91.53,350.724,348.449,0.0
52463.0,STARLINK-3885,PAYLOAD,2022-06-25 06:00:00,15.73233944,0.0001435,53.2156,19.6515,42.0001,197.4911,-0.00057972,-0.00081317,0.0,0 STARLINK-3885,1 52463U 22049N   22176.25001157 -.00081317  00000-0 -57972-3 0  9991,2 52463  53.2156  19.6515 0001435  42.0001 197.4911 15.73233944  8013,6727.7980000000025,91.531,350.629,348.6980000000001,0.0
52463.0,STARLINK-3885,PAYLOAD,2022-06-25 14:00:01,15.73174276,0.0001444,53.2159,18.0012,50.9937,277.4424,0.00021407,0.00029496,0.0,0 STARLINK-3885,1 52463U 22049N   22176.58334491  .00029496  00000-0  21407-3 0  9999,2 52463  53.2159  18.0012 0001444  50.9937 277.4424 15.73174276  8073,6727.969,91.535,350.805,348.862,0.0
52463.0,STARLINK-3885,PAYLOAD,2022-06-25 22:00:00,15.7318827,0.0001631999999999,53.216,16.3537,43.1282,14.292,0.00045322,0.00063437,0.0,0 STARLINK-3885,1 52463U 22049N   22176.91667824  .00063437  00000-0  45322-3 0  9990,2 52463  53.2160  16.3537 0001632  43.1282  14.2920 15.73188270  8127,6727.929,91.534,350.892,348.696,0.0
52463.0,STARLINK-3885,PAYLOAD,2022-06-26 14:00:01,15.73255404,0.0001553,53.2162,13.0524,50.9214,184.4825,-0.00030397,-0.00043164,0.0,0 STARLINK-3885,1 52463U 22049N   22177.58335648 -.00043164  00000-0 -30397-3 0  9993,2 52463  53.2162  13.0524 0001553  50.9214 184.4825 15.73255404  8221,6727.736999999999,91.53,350.647,348.557,0.0
